NORAD_CAT_ID,OBJECT_NAME,OBJECT_TYPE,EPOCH,MEAN_MOTION,ECCENTRICITY,INCLINATION,RA_OF_ASC_NODE,ARG_OF_PERICENTER,MEAN_ANOMALY,BSTAR,MEAN_MOTION_DOT,MEAN_MOTION_DDOT,TLE_LINE0,TLE_LINE1,TLE_LINE2,SEMIMAJOR_AXIS,PERIOD,APOGEE,PERIGEE,DECAYED
52091.0,STARLINK-3713,PAYLOAD,2024-04-13 19:54:42,15.08839554,0.0001244,53.2178,328.4667,91.6188,268.4946,8.215e-05,1.02e-05,0.0,0 STARLINK-3713,1 52091U 22029D   24104.82965364  .00001020  00000-0  82150-4 0  9999,2 52091  53.2178 328.4667 0001244  91.6188 268.4946 15.08839554115751,6917.882,95.438,540.607,538.886,0.0
52091.0,STARLINK-3713,PAYLOAD,2024-04-13 21:30:05,15.0884109,0.0001202,53.2177,328.1698,88.0024,272.1106,4.0271e-05,3.53e-06,0.0,0 STARLINK-3713,1 52091U 22029D   24104.89589407  .00000353  00000-0  40271-4 0  9992,2 52091  53.2177 328.1698 0001202  88.0024 272.1106 15.08841090115763,6917.877,95.437,540.574,538.911,0.0
52091.0,STARLINK-3713,PAYLOAD,2024-04-14 21:20:52,15.08838403,0.0001234,53.2178,323.7076,94.5294,265.5839,1.5341e-05,-4.4e-07,0.0,0 STARLINK-3713,1 52091U 22029D   24105.88949657 -.00000044  00000-0  15341-4 0  9997,2 52091  53.2178 323.7076 0001234  94.5294 265.5839 15.08838403115911,6917.885,95.438,540.604,538.897,0.0
52091.0,STARLINK-3713,PAYLOAD,2024-04-15 14:50:07,15.08837046,0.0001232,53.2177,320.4379,89.6699,270.4434,5.1194e-05,5.27e-06,0.0,0 STARLINK-3713,1 52091U 22029D   24106.61813750  .00000527  00000-0  51194-4 0  9994,2 52091  53.2177 320.4379 0001232  89.6699 270.4434 15.08837046116023,6917.889,95.438,540.607,538.902,0.0
52091.0,STARLINK-3713,PAYLOAD,2024-04-15 21:11:39,15.08837182,0.0001228,53.2176,319.2491,87.604,272.5093,5.0429e-05,5.15e-06,0.0,0 STARLINK-3713,1 52091U 22029D   24106.88309835  .00000515  00000-0  50429-4 0  9994,2 52091  53.2176 319.2491 0001228  87.6040 272.5093 15.08837182116065,6917.889,95.438,540.604,538.904,0.0
52091.0,STARLINK-3713,PAYLOAD,2024-04-16 00:22:26,15.08837005,0.0001233,53.2177,318.655,90.1437,269.9696,4.7324e-05,4.65e-06,0.0,0 STARLINK-3713,1 52091U 22029D   24107.01557885  .00000465  00000-0  47324-4 0  9994,2 52091  53.2177 318.6550 0001233  90.1437 269.9696 15.08837005116085,6917.89,95.438,540.608,538.902,0.0
52091.0,STARLINK-3713,PAYLOAD,2024-04-16 06:43:58,15.08839505,0.0001579,53.2202,317.4677,100.0207,260.0963,9.2628e-05,1.186e-05,0.0,0 STARLINK-3713,1 52091U 22029D   24107.28053754  .00001186  00000-0  92628-4 0  9997,2 52091  53.2202 317.4677 0001579 100.0207 260.0963 15.08839505116121,6917.882,95.438,540.839,538.655,0.0
52091.0,STARLINK-3713,PAYLOAD,2024-04-16 21:02:26,15.08836386,0.000148,53.2196,314.7917,102.2672,257.8485,0.00011917,1.609e-05,0.0,0 STARLINK-3713,1 52091U 22029D   24107.87669895  .00001609  00000-0  11917-3 0  9992,2 52091  53.2196 314.7917 0001480 102.2672 257.8485 15.08836386116218,6917.891,95.438,540.78,538.733,0.0
52091.0,STARLINK-3713,PAYLOAD,2024-04-17 00:13:12,15.08847508,0.0001523,53.2193,314.196,110.1175,249.9981,1.3456e-06,-2.67e-06,0.0,0 STARLINK-3713,1 52091U 22029D   24108.00917475 -.00000267  00000-0  13456-5 0  9990,2 52091  53.2193 314.1960 0001523 110.1175 249.9981 15.08847508116234,6917.857,95.437,540.776,538.669,0.0
52091.0,STARLINK-3713,PAYLOAD,2024-04-17 19:17:51,15.08830549,0.0001568,53.2179,310.6241,87.8026,272.3146,-1.3622e-05,-5.05e-06,0.0,0 STARLINK-3713,1 52091U 22029D   24108.80407021 -.00000505  00000-0 -13622-4 0  9999,2 52091  53.2179 310.6241 0001568  87.8026 272.3146 15.08830549116358,6917.909,95.438,540.859,538.69,0.0
52091.0,STARLINK-3713,PAYLOAD,2024-04-17 20:53:14,15.08828909,0.0001137,53.2173,310.3263,94.3567,265.7555,-2.4054e-05,-6.7e-06,0.0,0 STARLINK-3713,1 52091U 22029D   24108.87031097 -.00000670  00000-0 -24054-4 0  9996,2 52091  53.2173 310.3263 0001137  94.3567 265.7555 15.08828909116366,6917.914,95.438,540.566,538.993,0.0
52091.0,STARLINK-3713,PAYLOAD,2024-04-18 20:44:01,15.08839487,0.0001263,53.2169,305.873,102.7107,257.4026,2.7916e-05,1.56e-06,0.0,0 STARLINK-3713,1 52091U 22029D   24109.86390927  .00000156  00000-0  27916-4 0  9993,2 52091  53.2169 305.8730 0001263 102.7107 257.4026 15.08839487116514,6917.882,95.438,540.621,538.873,0.0
52091.0,STARLINK-3713,PAYLOAD,2024-04-18 22:19:24,15.08840649,0.0001382,53.2173,305.5666,105.704,254.4105,3.4663e-05,2.64e-06,0.0,0 STARLINK-3713,1 52091U 22029D   24109.93014787  .00000264  00000-0  34663-4 0  9995,2 52091  53.2173 305.5666 0001382 105.7040 254.4105 15.08840649116523,6917.878,95.438,540.699,538.787,0.0
52091.0,STARLINK-3713,PAYLOAD,2024-04-19 12:37:52,15.08841956,0.0001334,53.2174,302.893,97.8957,262.2187,0.00017308,2.468e-05,0.0,0 STARLINK-3713,1 52091U 22029D   24110.52630499  .00002468  00000-0  17308-3 0  9990,2 52091  53.2174 302.8930 0001334  97.8957 262.2187 15.08841956116612,6917.874,95.437,540.662,538.817,0.0
52091.0,STARLINK-3713,PAYLOAD,2024-04-19 18:59:25,15.08845174,0.0001391,53.2172,301.7044,92.294,267.8212,0.00027056,4.021e-05,0.0,0 STARLINK-3713,1 52091U 22029D   24110.79126191  .00004021  00000-0  27056-3 0  9996,2 52091  53.2172 301.7044 0001391  92.2940 267.8212 15.08845174116658,6917.865,95.437,540.692,538.767,0.0
52091.0,STARLINK-3713,PAYLOAD,2024-04-19 22:10:10,15.08850146,0.0001405,53.2173,301.1087,93.5587,266.5565,0.0003147,4.725e-05,0.0,0 STARLINK-3713,1 52091U 22029D   24110.92373838  .00004725  00000-0  31470-3 0  9999,2 52091  53.2173 301.1087 0001405  93.5587 266.5565 15.08850146116671,6917.849,95.437,540.686,538.742,0.0
52091.0,STARLINK-3713,PAYLOAD,2024-04-20 18:50:12,15.08845063,0.0001602,53.2176,297.2421,110.8125,249.3038,4.3865e-05,4.1e-06,0.0,0 STARLINK-3713,1 52091U 22029D   24111.78486356  .00000410  00000-0  43865-4 0  9993,2 52091  53.2176 297.2421 0001602 110.8125 249.3038 15.08845063116802,6917.865,95.437,540.838,538.622,0.0
52091.0,STARLINK-3713,PAYLOAD,2024-04-21 18:40:59,15.08843167,0.0001621,53.2186,292.7814,119.8992,240.2161,-5.719e-05,-1.198e-05,0.0,0 STARLINK-3713,1 52091U 22029D   24112.77846508 -.00001198  00000-0 -57190-4 0  9994,2 52091  53.2186 292.7814 0001621 119.8992 240.2161 15.08843167116957,6917.871,95.437,540.857,538.614,0.0
52091.0,STARLINK-3713,PAYLOAD,2024-04-21 21:51:45,15.08842831,0.0001567,53.2184,292.1866,117.4959,242.6193,-6.1473e-05,-1.266e-05,0.0,0 STARLINK-3713,1 52091U 22029D   24112.91094500 -.00001266  00000-0 -61473-4 0  9992,2 52091  53.2184 292.1866 0001567 117.4959 242.6193 15.08842831116972,6917.872,95.437,540.821,538.653,0.0
52091.0,STARLINK-3713,PAYLOAD,2024-04-22 16:56:23,15.08833844,0.0001394,53.2183,288.6182,114.5836,245.5302,4.3315e-05,4.01e-06,0.0,0 STARLINK-3713,1 52091U 22029D   24113.70582697  .00000401  00000-0  43315-4 0  9992,2 52091  53.2183 288.6182 0001394 114.5836 245.5302 15.08833844117094,6917.899,95.438,540.729,538.8,0.0
52091.0,STARLINK-3713,PAYLOAD,2024-04-23 10:25:38,15.08833885,0.0001316,53.2181,285.3477,111.4508,248.6624,3.7395e-05,3.07e-06,0.0,0 STARLINK-3713,1 52091U 22029D   24114.43447036  .00000307  00000-0  37395-4 0  9996,2 52091  53.2181 285.3477 0001316 111.4508 248.6624 15.08833885117208,6917.899,95.438,540.674,538.854,0.0
52091.0,STARLINK-3713,PAYLOAD,2024-04-23 18:22:33,15.08836482,0.0001231,53.2175,283.8612,100.5471,259.566,5.1255e-05,5.28e-06,0.0,0 STARLINK-3713,1 52091U 22029D   24114.76566947  .00000528  00000-0  51255-4 0  9991,2 52091  53.2175 283.8612 0001231 100.5471 259.5660 15.08836482117251,6917.891,95.438,540.608,538.905,0.0
52091.0,STARLINK-3713,PAYLOAD,2024-04-24 10:16:25,15.08836932,0.0001214,53.2178,280.8882,97.0237,263.0893,5.9851e-05,6.65e-06,0.0,0 STARLINK-3713,1 52091U 22029D   24115.42807077  .00000665  00000-0  59851-4 0  9999,2 52091  53.2178 280.8882 0001214  97.0237 263.0893 15.08836932117350,6917.89,95.438,540.595,538.915,0.0
52091.0,STARLINK-3713,PAYLOAD,2024-04-24 16:37:57,15.08836772,0.0001218,53.2176,279.6986,96.6205,263.4925,7.4577e-05,8.99e-06,0.0,0 STARLINK-3713,1 52091U 22029D   24115.69303100  .00000899  00000-0  74577-4 0  9997,2 52091  53.2176 279.6986 0001218  96.6205 263.4925 15.08836772117399,6917.89,95.438,540.598,538.913,0.0
52091.0,STARLINK-3713,PAYLOAD,2024-04-25 14:53:20,15.08854528,0.0001243,53.2176,275.5345,96.9084,263.205,0.00016269,2.303e-05,0.0,0 STARLINK-3713,1 52091U 22029D   24116.62037339  .00002303  00000-0  16269-3 0  9994,2 52091  53.2176 275.5345 0001243  96.9084 263.2050 15.08854528117531,6917.836,95.437,540.561,538.841,0.0
52091.0,STARLINK-3713,PAYLOAD,2024-04-25 16:28:43,15.08857139,0.000126,53.2172,275.237,91.5337,268.58,0.00018766,2.701e-05,0.0,0 STARLINK-3713,1 52091U 22029D   24116.68661091  .00002701  00000-0  18766-3 0  9994,2 52091  53.2172 275.2370 0001260  91.5337 268.5800 15.08857139117546,6917.828,95.436,540.565,538.821,0.0
52091.0,STARLINK-3713,PAYLOAD,2024-04-26 14:44:06,15.08858876,0.0001353,53.2176,271.0732,97.1345,262.9801,0.00013304,1.831e-05,0.0,0 STARLINK-3713,1 52091U 22029D   24117.61396164  .00001831  00000-0  13304-3 0  9990,2 52091  53.2176 271.0732 0001353  97.1345 262.9801 15.08858876117683,6917.823,95.436,540.624,538.752,0.0
52091.0,STARLINK-3713,PAYLOAD,2024-04-26 16:19:30,15.08844603,0.0001533,53.2183,270.7819,57.3204,302.7936,0.00010152,1.328e-05,0.0,0 STARLINK-3713,1 52091U 22029D   24117.68021330  .00001328  00000-0  10152-3 0  9996,2 52091  53.2183 270.7819 0001533  57.3204 302.7936 15.08844603117691,6917.866,95.437,540.792,538.671,0.0
52091.0,STARLINK-3713,PAYLOAD,2024-04-27 03:27:13,15.08832095,0.0001375,53.2179,268.6983,80.1043,280.0105,-0.00016775,-2.956e-05,0.0,0 STARLINK-3713,1 52091U 22029D   24118.14390918 -.00002956  00000-0 -16775-3 0  9996,2 52091  53.2179 268.6983 0001375  80.1043 280.0105 15.08832095117769,6917.905,95.438,540.721,538.818,0.0
52091.0,STARLINK-3713,PAYLOAD,2024-04-27 14:34:56,15.08829948,0.000135,53.218,266.6181,95.2149,264.8997,-0.00031099,-5.232e-05,0.0,0 STARLINK-3713,1 52091U 22029D   24118.60759656 -.00005232  00000-0 -31099-3 0  9991,2 52091  53.2180 266.6181 0001350  95.2149 264.8997 15.08829948117836,6917.911,95.438,540.71,538.842,0.0
